{"type":"FeatureCollection","name":"points_eau","features":[{"type":"Feature","properties":{"nom":"Fontaine des Pères","type":"Fontaine","nature":"Fontaine","detail":"","source":"IGN BD TOPO 3.5 – D078 – 2026-06-15","potabilite":"Non renseignée","statut":"Validé","id":"PAIHYDRO0000000004792531","insee_com":"78576","acquisition":"BDTopo","precision_m":2.5},"geometry":{"type":"Point","coordinates":[1.8954442245730652,48.743470029371174]}},{"type":"Feature","properties":{"nom":"Fontaine des Oiseaux","type":"Fontaine","nature":"Fontaine","detail":"","source":"IGN BD TOPO 3.5 – D078 – 2026-06-15","potabilite":"Non renseignée","statut":"Validé","id":"PAIHYDRO0000000004792542","insee_com":"78562","acquisition":"BDTopo","precision_m":2.5},"geometry":{"type":"Point","coordinates":[1.768922360943917,48.721673646549036]}},{"type":"Feature","properties":{"nom":"Fontaine Bleue","type":"Fontaine","nature":"Fontaine","detail":"","source":"IGN BD TOPO 3.5 – D078 – 2026-06-15","potabilite":"Non renseignée","statut":"Validé","id":"PAIHYDRO0000000004792560","insee_com":"78562","acquisition":"BDTopo","precision_m":2.5},"geometry":{"type":"Point","coordinates":[1.7220033973921953,48.711391483730274]}},{"type":"Feature","properties":{"nom":"Fontaine du Houx","type":"Fontaine","nature":"Fontaine","detail":"","source":"IGN BD TOPO 3.5 – D078 – 2026-06-15","potabilite":"Non renseignée","statut":"Validé","id":"PAIHYDRO0000000004792565","insee_com":"78030","acquisition":"BDTopo","precision_m":2.5},"geometry":{"type":"Point","coordinates":[1.8810918979049371,48.698570944449536]}},{"type":"Feature","properties":{"nom":"Fontaine des Prés","type":"Fontaine","nature":"Fontaine","detail":"","source":"IGN BD TOPO 3.5 – D078 – 2026-06-15","potabilite":"Non renseignée","statut":"Validé","id":"PAIHYDRO0000000004792566","insee_com":"78030","acquisition":"BDTopo","precision_m":2.5},"geometry":{"type":"Point","coordinates":[1.8825807178666547,48.70183761675894]}},{"type":"Feature","properties":{"nom":"Marais du Cerisaie","type":"Marais","nature":"Marais","detail":"","source":"IGN BD TOPO 3.5 – D078 – 2026-06-15","potabilite":"Non renseignée","statut":"Validé","id":"PAIHYDRO0000000004792584","insee_com":"78497","acquisition":"BDNyme","precision_m":30.0},"geometry":{"type":"Point","coordinates":[1.780598863023617,48.67632117114688]}},{"type":"Feature","properties":{"nom":"Lavoir","type":"Lavoir","nature":"Lavoir","detail":"","source":"IGN BD TOPO 3.5 – D078 – 2026-06-15","potabilite":"Non renseignée","statut":"BD TOPO","id":"PAIHYDRO0000000296669020","insee_com":"78562","acquisition":"Scan25","precision_m":10.0},"geometry":{"type":"Point","coordinates":[1.7702960207153482,48.72136217760369]}},{"type":"Feature","properties":{"nom":"Fontaine du Roi","type":"Fontaine","nature":"Fontaine","detail":"","source":"IGN BD TOPO 3.5 – D078 – 2026-06-15","potabilite":"Non renseignée","statut":"Collecté","id":"PAIHYDRO0000000320239009","insee_com":"78030","acquisition":"BDTopo","precision_m":2.5},"geometry":{"type":"Point","coordinates":[1.8896121810633686,48.70240971337814]}},{"type":"Feature","properties":{"nom":"Citerne","type":"Citerne","nature":"Citerne","detail":"","source":"IGN BD TOPO 3.5 – D078 – 2026-06-15","potabilite":"Non renseignée","statut":"BD TOPO","id":"PAIHYDRO0000000320239018","insee_com":"78562","acquisition":"BDTopo","precision_m":2.5},"geometry":{"type":"Point","coordinates":[1.7553344119649354,48.735972010989734]}},{"type":"Feature","properties":{"nom":"Lavoir","type":"Lavoir","nature":"Lavoir","detail":"","source":"IGN BD TOPO 3.5 – D078 – 2026-06-15","potabilite":"Non renseignée","statut":"BD TOPO","id":"PAIHYDRO0000000320239019","insee_com":"78264","acquisition":"BDTopo","precision_m":2.5},"geometry":{"type":"Point","coordinates":[1.735508563488153,48.757585174486294]}},{"type":"Feature","properties":{"nom":"Lavoir","type":"Lavoir","nature":"Lavoir","detail":"","source":"IGN BD TOPO 3.5 – D078 – 2026-06-15","potabilite":"Non renseignée","statut":"BD TOPO","id":"PAIHYDRO0000000320239028","insee_com":"78398","acquisition":"BDTopo","precision_m":2.5},"geometry":{"type":"Point","coordinates":[1.840560292889609,48.757906546326105]}},{"type":"Feature","properties":{"nom":"Lavoir","type":"Lavoir","nature":"Lavoir","detail":"","source":"IGN BD TOPO 3.5 – D078 – 2026-06-15","potabilite":"Non renseignée","statut":"BD TOPO","id":"PAIHYDRO0000000320239029","insee_com":"78398","acquisition":"BDTopo","precision_m":2.5},"geometry":{"type":"Point","coordinates":[1.8315030025031092,48.755872649814314]}},{"type":"Feature","properties":{"nom":"Puits","type":"Point d'eau – Puits","nature":"Point d'eau","detail":"Puits","source":"IGN BD TOPO 3.5 – D078 – 2026-06-15","potabilite":"Non renseignée","statut":"BD TOPO","id":"PAIHYDRO0000000320239030","insee_com":"78108","acquisition":"Orthophotographie","precision_m":3.0},"geometry":{"type":"Point","coordinates":[1.8027025218146087,48.69907189937805]}},{"type":"Feature","properties":{"nom":"Puits","type":"Point d'eau – Puits","nature":"Point d'eau","detail":"Puits","source":"IGN BD TOPO 3.5 – D078 – 2026-06-15","potabilite":"Non renseignée","statut":"BD TOPO","id":"PAIHYDRO0000000320239031","insee_com":"78108","acquisition":"Orthophotographie","precision_m":3.0},"geometry":{"type":"Point","coordinates":[1.805411201405776,48.697809105579054]}},{"type":"Feature","properties":{"nom":"Puits","type":"Point d'eau – Puits","nature":"Point d'eau","detail":"Puits","source":"IGN BD TOPO 3.5 – D078 – 2026-06-15","potabilite":"Non renseignée","statut":"BD TOPO","id":"PAIHYDRO0000000320239032","insee_com":"78108","acquisition":"Orthophotographie","precision_m":3.0},"geometry":{"type":"Point","coordinates":[1.8041084872463027,48.69879814853299]}},{"type":"Feature","properties":{"nom":"Fontaine","type":"Fontaine","nature":"Fontaine","detail":"","source":"IGN BD TOPO 3.5 – D078 – 2026-06-15","potabilite":"Non renseignée","statut":"BD TOPO","id":"PAIHYDRO0000000331918092","insee_com":"78030","acquisition":"Orthophotographie","precision_m":3.0},"geometry":{"type":"Point","coordinates":[1.8872381104494729,48.699979541776976]}},{"type":"Feature","properties":{"nom":"Fontaine Saint-Fort","type":"Fontaine","nature":"Fontaine","detail":"","source":"IGN BD TOPO 3.5 – D078 – 2026-06-15","potabilite":"Non renseignée","statut":"Collecté","id":"PAIHYDRO0000002002813686","insee_com":"78497","acquisition":"Scan25","precision_m":10.0},"geometry":{"type":"Point","coordinates":[1.7361979932149227,48.6731879251485]}},{"type":"Feature","properties":{"nom":"Fontaine","type":"Fontaine","nature":"Fontaine","detail":"","source":"IGN BD TOPO 3.5 – D078 – 2026-06-15","potabilite":"Non renseignée","statut":"BD TOPO","id":"PAIHYDRO0000002003455528","insee_com":"78030","acquisition":"Orthophotographie","precision_m":3.0},"geometry":{"type":"Point","coordinates":[1.8853589915789613,48.702451004584375]}},{"type":"Feature","properties":{"nom":"Citerne","type":"Citerne","nature":"Citerne","detail":"","source":"IGN BD TOPO 3.5 – D078 – 2026-06-15","potabilite":"Non renseignée","statut":"BD TOPO","id":"PAIHYDRO0000002003455529","insee_com":"78486","acquisition":"Levé non GPS","precision_m":5.0},"geometry":{"type":"Point","coordinates":[1.8534883439085275,48.69479789852526]}},{"type":"Feature","properties":{"nom":"Lavoir","type":"Lavoir","nature":"Lavoir","detail":"","source":"IGN BD TOPO 3.5 – D078 – 2026-06-15","potabilite":"Non renseignée","statut":"BD TOPO","id":"PAIHYDRO0000002003455530","insee_com":"78497","acquisition":"Levé non GPS","precision_m":5.0},"geometry":{"type":"Point","coordinates":[1.7482955408966487,48.6744058445094]}},{"type":"Feature","properties":{"nom":"Citerne","type":"Citerne","nature":"Citerne","detail":"","source":"IGN BD TOPO 3.5 – D078 – 2026-06-15","potabilite":"Non renseignée","statut":"BD TOPO","id":"PAIHYDRO0000002285360133","insee_com":"78220","acquisition":"Orthophotographie","precision_m":3.0},"geometry":{"type":"Point","coordinates":[1.8623541012309093,48.71436040494899]}},{"type":"Feature","properties":{"nom":"DFCI","type":"Citerne – DFCI","nature":"Citerne","detail":"DFCI","source":"IGN BD TOPO 3.5 – D078 – 2026-06-15","potabilite":"Non renseignée","statut":"BD TOPO","id":"PAIHYDRO0000002493168619","insee_com":"78562","acquisition":"Orthophotographie","precision_m":3.0},"geometry":{"type":"Point","coordinates":[1.7204461156788151,48.73063407637541]}},{"type":"Feature","properties":{"nom":"DFCI","type":"Citerne – DFCI","nature":"Citerne","detail":"DFCI","source":"IGN BD TOPO 3.5 – D078 – 2026-06-15","potabilite":"Non renseignée","statut":"BD TOPO","id":"PAIHYDRO0000002493448486","insee_com":"78655","acquisition":"Orthophotographie","precision_m":3.0},"geometry":{"type":"Point","coordinates":[1.8671809640187353,48.66414245559371]}}]}