{"type":"FeatureCollection","name":"sources","features":[{"type":"Feature","properties":{"nom":"Source","type":"Source","nature":"Source","detail":"","source":"IGN BD TOPO 3.5 – D078 – 2026-06-15","potabilite":"Non renseignée","statut":"BD TOPO","id":"PAIHYDRO0000000320239005","insee_com":"78168","acquisition":"BDTopo","precision_m":2.5},"geometry":{"type":"Point","coordinates":[1.89305867176273,48.75489040583698]}},{"type":"Feature","properties":{"nom":"Source","type":"Source","nature":"Source","detail":"","source":"IGN BD TOPO 3.5 – D078 – 2026-06-15","potabilite":"Non renseignée","statut":"BD TOPO","id":"PAIHYDRO0000000320239021","insee_com":"78264","acquisition":"BDTopo","precision_m":2.5},"geometry":{"type":"Point","coordinates":[1.7001575872283174,48.74295260008977]}},{"type":"Feature","properties":{"nom":"Source","type":"Source","nature":"Source","detail":"","source":"IGN BD TOPO 3.5 – D078 – 2026-06-15","potabilite":"Non renseignée","statut":"BD TOPO","id":"PAIHYDRO0000000320239022","insee_com":"78398","acquisition":"BDTopo","precision_m":2.5},"geometry":{"type":"Point","coordinates":[1.8247239974228815,48.753520489542964]}},{"type":"Feature","properties":{"nom":"Source","type":"Source","nature":"Source","detail":"","source":"IGN BD TOPO 3.5 – D078 – 2026-06-15","potabilite":"Non renseignée","statut":"BD TOPO","id":"PAIHYDRO0000000320239023","insee_com":"78398","acquisition":"BDTopo","precision_m":2.5},"geometry":{"type":"Point","coordinates":[1.8268090677733733,48.75716778050574]}},{"type":"Feature","properties":{"nom":"Source","type":"Source","nature":"Source","detail":"","source":"IGN BD TOPO 3.5 – D078 – 2026-06-15","potabilite":"Non renseignée","statut":"BD TOPO","id":"PAIHYDRO0000000320239024","insee_com":"78398","acquisition":"BDTopo","precision_m":2.5},"geometry":{"type":"Point","coordinates":[1.8249023859020173,48.75635297601052]}},{"type":"Feature","properties":{"nom":"Source","type":"Source","nature":"Source","detail":"","source":"IGN BD TOPO 3.5 – D078 – 2026-06-15","potabilite":"Non renseignée","statut":"BD TOPO","id":"PAIHYDRO0000000320239025","insee_com":"78576","acquisition":"BDTopo","precision_m":2.5},"geometry":{"type":"Point","coordinates":[1.860321664585356,48.74135618794746]}},{"type":"Feature","properties":{"nom":"Source","type":"Source","nature":"Source","detail":"","source":"IGN BD TOPO 3.5 – D078 – 2026-06-15","potabilite":"Non renseignée","statut":"BD TOPO","id":"PAIHYDRO0000000320239026","insee_com":"78576","acquisition":"BDTopo","precision_m":2.5},"geometry":{"type":"Point","coordinates":[1.8677991832969774,48.754711148798364]}},{"type":"Feature","properties":{"nom":"Source captée","type":"Source captée","nature":"Source captée","detail":"","source":"IGN BD TOPO 3.5 – D078 – 2026-06-15","potabilite":"Non renseignée","statut":"BD TOPO","id":"PAIHYDRO0000000320239027","insee_com":"78398","acquisition":"BDTopo","precision_m":2.5},"geometry":{"type":"Point","coordinates":[1.8270535266049412,48.74889116092424]}},{"type":"Feature","properties":{"nom":"Source","type":"Source","nature":"Source","detail":"","source":"IGN BD TOPO 3.5 – D078 – 2026-06-15","potabilite":"Non renseignée","statut":"BD TOPO","id":"PAIHYDRO0000002003455531","insee_com":"78497","acquisition":"Levé non GPS","precision_m":5.0},"geometry":{"type":"Point","coordinates":[1.7353322235009867,48.673042007818495]}}]}